PROBA-1                 
1 26958U 01049B   26158.51189780  .00002689  00000+0  17589-3 0  9992
2 26958  97.9598 166.7072 0055424 154.1725 206.2288 15.07452383342165
CUTE-1 (CO-55)          
1 27844U 03031E   26157.49994927  .00000321  00000+0  15775-3 0  9999
2 27844  98.6735 166.1932 0008851 210.1158 149.9513 14.24329258190151
CUBESAT XI-IV (CO-57)   
1 27848U 03031J   26157.55333329  .00000268  00000+0  13659-3 0  9992
2 27848  98.6767 165.9671 0008459 230.3427 129.7005 14.23615194189868
APRIZESAT 4             
1 35684U 09041D   26158.47943081  .00000804  00000+0  10239-3 0  9997
2 35684  98.1412 233.6064 0043100 354.9650   5.1124 14.83866981909923
APRIZESAT 3             
1 35686U 09041F   26158.13448620  .00001326  00000+0  11887-3 0  9991
2 35686  98.2056 310.8781 0062820 100.0489 260.7827 14.96213054914874
PROBA-2                 
1 36037U 09059B   26158.13045582  .00000228  00000+0  63694-4 0  9995
2 36037  98.2451 341.6229 0012307 316.1356  43.8863 14.54858231880060
APRIZESAT 5             
1 37792U 11044E   26158.07601243  .00001232  00000+0  16260-3 0  9998
2 37792  98.2452  90.8301 0053104  36.5494 323.9323 14.81053635797290
APRIZESAT 6             
1 37793U 11044F   26156.51628799  .00000814  00000+0  12180-3 0  9993
2 37793  98.2372  66.7773 0044238 122.3000  58.2477 14.76898404795428
PROBA-V                 
1 39159U 13021A   26158.20899676  .00000092  00000+0  58535-4 0  9993
2 39159  98.3579 137.3085 0004666 147.6602 212.4864 14.23594900679696
APRIZESAT 7             
1 39416U 13066A   26157.15188332  .00001540  00000+0  15777-3 0  9990
2 39416  97.7702 110.5307 0034355 247.0865 112.6726 14.91541126679580
APRIZESAT 8             
1 39425U 13066K   26158.11948082  .00001166  00000+0  13217-3 0  9994
2 39425  97.8217 105.7282 0044942 320.6663  39.1291 14.87632925678174
BUGSAT-1 (TITA)         
1 40014U 14033E   26158.52864384  .00007218  00000+0  38169-3 0  9999
2 40014  98.0419 250.5132 0027333 211.7738 148.1844 15.15483922654372
SAUDISAT 4              
1 40016U 14033G   26158.44777355  .00000914  00000+0  12688-3 0  9997
2 40016  97.7573 304.9203 0046193 104.6832 255.9507 14.79531850644638
APRIZESAT 9             
1 40018U 14033J   26158.09429169  .00000681  00000+0  10760-3 0  9997
2 40018  97.9049 291.5403 0065033 231.9878 127.5448 14.74201136642071
APRIZESAT 10            
1 40019U 14033K   26158.26267875  .00000513  00000+0  88458-4 0  9995
2 40019  97.9638 285.4442 0077657 306.0825  53.3207 14.70874316640790
TECHDEMOSAT-1 (TDS-1)   
1 40076U 14037H   26158.23974635  .00009359  00000+0  53189-3 0  9997
2 40076  98.3817 149.4682 0004720 312.3644  47.7185 15.13147654646729
TECHNOSAT               
1 42829U 17042E   26158.00974720  .00003117  00000+0  22364-3 0  9991
2 42829  97.4271 316.0569 0018923 126.2064 234.0916 15.04893849485172
FLYING LAPTOP           
1 42831U 17042G   26158.51995716  .00004548  00000+0  35861-3 0  9993
2 42831  97.4653 314.4280 0019052 153.2428 206.9784 15.01083981485007
HAWK-A                  
1 43765U 18099H   26157.64982495  .00007347  00000+0  29691-3 0  9990
2 43765  97.3914 210.0235 0033672 324.6995  35.2013 15.24517294411495
HAWK-B                  
1 43794U 18099AN  26158.38169193  .00006180  00000+0  26454-3 0  9994
2 43794  97.3966 210.1815 0031297 340.7514  19.2538 15.22717395411548
HAWK-C                  
1 43799U 18099AT  26157.91208887  .00008868  00000+0  32043-3 0  9997
2 43799  97.3891 211.1447 0039330 323.6382  36.2186 15.27957982412341
SALSAT                  
1 46495U 20068K   26157.74488443  .00010129  00000+0  35498-3 0  9991
2 46495  97.8851 160.1753 0009049 349.8452  10.2602 15.29647918313761
HAWK-2C                 
1 47502U 21006CT  26158.37140797  .00006841  00000+0  20666-3 0  9998
2 47502  97.2283 202.8778 0005610 223.4116 136.6686 15.34545147297997
HAWK-2A                 
1 47505U 21006CW  26157.65671075  .00007467  00000+0  22534-3 0  9990
2 47505  97.2322 202.8491 0005001 231.0748 129.0050 15.34550344297880
HAWK-2B                 
1 47508U 21006CZ  26158.37004557  .00007877  00000+0  23692-3 0  9999
2 47508  97.2194 201.8960 0005583 225.2694 134.8095 15.34633002297998
HAWK-3B                 
1 48931U 21059BE  26158.12090431  .00042398  00000+0  37237-3 0  9994
2 48931  97.6674 353.8832 0003905  17.0831 343.0560 15.68704799276276
HAWK-3C                 
1 48948U 21059BX  26157.80164031  .00051393  00000+0  45097-3 0  9992
2 48948  97.6799 359.2017 0004515  18.2395 341.9027 15.68684182276226
HAWK-3A                 
1 48957U 21059CG  26158.12048620  .00041043  00000+0  36050-3 0  9993
2 48957  97.6740 356.7648 0004502  18.8245 341.3182 15.68706495276273
HAWK-5C                 
1 52754U 22057Y   26157.40026150  .00027044  00000+0  46631-3 0  9997
2 52754  97.6586 316.3762 0005409 114.0834 246.0984 15.51004853224679
HAWK-5B                 
1 52756U 22057AA  26157.65817939  .00025037  00000+0  43170-3 0  9994
2 52756  97.6598 314.9992 0006022 106.4779 253.7134 15.51016567224710
